[{"OBJECT_NAME":"ONEWEB-0206","OBJECT_ID":"2021-031T","EPOCH":"2026-02-10T16:17:58.796736","MEAN_MOTION":13.14504087,"ECCENTRICITY":0.00014464,"INCLINATION":87.9036,"RA_OF_ASC_NODE":314.9163,"ARG_OF_PERICENTER":76.9961,"MEAN_ANOMALY":283.133,"EPHEMERIS_TYPE":0,"CLASSIFICATION_TYPE":"U","NORAD_CAT_ID":48227,"ELEMENT_SET_NO":999,"REV_AT_EPOCH":23160,"BSTAR":0.00021970311,"MEAN_MOTION_DOT":9.4e-7,"MEAN_MOTION_DDOT":0},{"OBJECT_NAME":"ONEWEB-0182","OBJECT_ID":"2021-031U","EPOCH":"2026-02-11T04:58:24.324672","MEAN_MOTION":13.14504289,"ECCENTRICITY":0.00018578,"INCLINATION":87.9019,"RA_OF_ASC_NODE":314.8278,"ARG_OF_PERICENTER":73.4228,"MEAN_ANOMALY":286.7105,"EPHEMERIS_TYPE":0,"CLASSIFICATION_TYPE":"U","NORAD_CAT_ID":48228,"ELEMENT_SET_NO":999,"REV_AT_EPOCH":23188,"BSTAR":0.00041282671,"MEAN_MOTION_DOT":1.66e-6,"MEAN_MOTION_DDOT":0},{"OBJECT_NAME":"ONEWEB-0186","OBJECT_ID":"2021-031V","EPOCH":"2026-02-11T05:14:22.421184","MEAN_MOTION":13.14505397,"ECCENTRICITY":0.00017853,"INCLINATION":87.9031,"RA_OF_ASC_NODE":314.8112,"ARG_OF_PERICENTER":78.896,"MEAN_ANOMALY":281.237,"EPHEMERIS_TYPE":0,"CLASSIFICATION_TYPE":"U","NORAD_CAT_ID":48229,"ELEMENT_SET_NO":999,"REV_AT_EPOCH":23183,"BSTAR":0.00021363551,"MEAN_MOTION_DOT":9.2e-7,"MEAN_MOTION_DDOT":0},{"OBJECT_NAME":"ONEWEB-0181","OBJECT_ID":"2021-031W","EPOCH":"2026-02-11T04:42:25.356384","MEAN_MOTION":13.145045,"ECCENTRICITY":0.00017777,"INCLINATION":87.9015,"RA_OF_ASC_NODE":314.8605,"ARG_OF_PERICENTER":84.8726,"MEAN_ANOMALY":275.2606,"EPHEMERIS_TYPE":0,"CLASSIFICATION_TYPE":"U","NORAD_CAT_ID":48230,"ELEMENT_SET_NO":999,"REV_AT_EPOCH":23168,"BSTAR":0.00063381235,"MEAN_MOTION_DOT":2.48e-6,"MEAN_MOTION_DDOT":0},{"OBJECT_NAME":"ONEWEB-0188","OBJECT_ID":"2021-031X","EPOCH":"2026-02-10T05:52:17.533632","MEAN_MOTION":13.14503518,"ECCENTRICITY":0.0001769,"INCLINATION":87.9017,"RA_OF_ASC_NODE":315.0473,"ARG_OF_PERICENTER":75.867,"MEAN_ANOMALY":284.2656,"EPHEMERIS_TYPE":0,"CLASSIFICATION_TYPE":"U","NORAD_CAT_ID":48231,"ELEMENT_SET_NO":999,"REV_AT_EPOCH":23146,"BSTAR":-0.00038442,"MEAN_MOTION_DOT":-1.3e-6,"MEAN_MOTION_DDOT":0},{"OBJECT_NAME":"ONEWEB-0220","OBJECT_ID":"2021-031Y","EPOCH":"2026-02-11T04:44:41.856288","MEAN_MOTION":13.14503558,"ECCENTRICITY":0.00019447,"INCLINATION":87.9028,"RA_OF_ASC_NODE":314.8146,"ARG_OF_PERICENTER":81.2716,"MEAN_ANOMALY":278.8634,"EPHEMERIS_TYPE":0,"CLASSIFICATION_TYPE":"U","NORAD_CAT_ID":48232,"ELEMENT_SET_NO":999,"REV_AT_EPOCH":23185,"BSTAR":0.00062161017,"MEAN_MOTION_DOT":2.43e-6,"MEAN_MOTION_DDOT":0},{"OBJECT_NAME":"ONEWEB-0165","OBJECT_ID":"2021-031Z","EPOCH":"2026-02-11T05:25:48.394848","MEAN_MOTION":13.14503991,"ECCENTRICITY":0.00017475,"INCLINATION":87.9017,"RA_OF_ASC_NODE":314.8269,"ARG_OF_PERICENTER":87.9258,"MEAN_ANOMALY":272.2071,"EPHEMERIS_TYPE":0,"CLASSIFICATION_TYPE":"U","NORAD_CAT_ID":48233,"ELEMENT_SET_NO":999,"REV_AT_EPOCH":23181,"BSTAR":-0.00017361292,"MEAN_MOTION_DOT":-5.2e-7,"MEAN_MOTION_DDOT":0},{"OBJECT_NAME":"ONEWEB-0199","OBJECT_ID":"2021-031AA","EPOCH":"2026-02-11T05:02:58.245504","MEAN_MOTION":13.14504184,"ECCENTRICITY":0.00016117,"INCLINATION":87.9026,"RA_OF_ASC_NODE":314.8112,"ARG_OF_PERICENTER":80.2008,"MEAN_ANOMALY":279.9304,"EPHEMERIS_TYPE":0,"CLASSIFICATION_TYPE":"U","NORAD_CAT_ID":48234,"ELEMENT_SET_NO":999,"REV_AT_EPOCH":23171,"BSTAR":0.00026518242,"MEAN_MOTION_DOT":1.11e-6,"MEAN_MOTION_DDOT":0},{"OBJECT_NAME":"ONEWEB-0203","OBJECT_ID":"2021-031AB","EPOCH":"2026-02-11T04:49:15.180096","MEAN_MOTION":13.14505149,"ECCENTRICITY":0.00015331,"INCLINATION":87.9021,"RA_OF_ASC_NODE":314.8122,"ARG_OF_PERICENTER":86.8809,"MEAN_ANOMALY":273.2496,"EPHEMERIS_TYPE":0,"CLASSIFICATION_TYPE":"U","NORAD_CAT_ID":48235,"ELEMENT_SET_NO":999,"REV_AT_EPOCH":23172,"BSTAR":0.00096066722,"MEAN_MOTION_DOT":3.69e-6,"MEAN_MOTION_DDOT":0},{"OBJECT_NAME":"ONEWEB-0197","OBJECT_ID":"2021-031AC","EPOCH":"2026-02-11T04:12:31.879008","MEAN_MOTION":13.14503619,"ECCENTRICITY":0.00019558,"INCLINATION":87.9025,"RA_OF_ASC_NODE":314.8172,"ARG_OF_PERICENTER":70.5962,"MEAN_ANOMALY":289.5379,"EPHEMERIS_TYPE":0,"CLASSIFICATION_TYPE":"U","NORAD_CAT_ID":48236,"ELEMENT_SET_NO":999,"REV_AT_EPOCH":23163,"BSTAR":-0.00024255149,"MEAN_MOTION_DOT":-7.7e-7,"MEAN_MOTION_DDOT":0},{"OBJECT_NAME":"ONEWEB-0194","OBJECT_ID":"2021-031AD","EPOCH":"2026-02-10T07:37:19.531488","MEAN_MOTION":13.14505937,"ECCENTRICITY":0.00015187,"INCLINATION":87.9027,"RA_OF_ASC_NODE":315.0039,"ARG_OF_PERICENTER":73.5017,"MEAN_ANOMALY":286.628,"EPHEMERIS_TYPE":0,"CLASSIFICATION_TYPE":"U","NORAD_CAT_ID":48237,"ELEMENT_SET_NO":999,"REV_AT_EPOCH":23169,"BSTAR":-0.00059504985,"MEAN_MOTION_DOT":-2.08e-6,"MEAN_MOTION_DDOT":0},{"OBJECT_NAME":"ONEWEB-0193","OBJECT_ID":"2021-031AE","EPOCH":"2026-02-10T06:10:34.002336","MEAN_MOTION":13.14504418,"ECCENTRICITY":0.0001337,"INCLINATION":87.9021,"RA_OF_ASC_NODE":315.0091,"ARG_OF_PERICENTER":69.0283,"MEAN_ANOMALY":291.0989,"EPHEMERIS_TYPE":0,"CLASSIFICATION_TYPE":"U","NORAD_CAT_ID":48238,"ELEMENT_SET_NO":999,"REV_AT_EPOCH":23163,"BSTAR":-0.00023936,"MEAN_MOTION_DOT":-7.6e-7,"MEAN_MOTION_DDOT":0},{"OBJECT_NAME":"ONEWEB-0191","OBJECT_ID":"2021-031AF","EPOCH":"2026-02-11T04:21:51.797664","MEAN_MOTION":13.14504575,"ECCENTRICITY":0.0001691,"INCLINATION":87.9027,"RA_OF_ASC_NODE":314.8196,"ARG_OF_PERICENTER":75.7447,"MEAN_ANOMALY":284.387,"EPHEMERIS_TYPE":0,"CLASSIFICATION_TYPE":"U","NORAD_CAT_ID":48239,"ELEMENT_SET_NO":999,"REV_AT_EPOCH":23161,"BSTAR":-3.4889809e-5,"MEAN_MOTION_DOT":0,"MEAN_MOTION_DDOT":0},{"OBJECT_NAME":"ONEWEB-0195","OBJECT_ID":"2021-031AG","EPOCH":"2026-02-10T07:43:02.126496","MEAN_MOTION":13.1450422,"ECCENTRICITY":0.00018146,"INCLINATION":87.9028,"RA_OF_ASC_NODE":314.9876,"ARG_OF_PERICENTER":90.8661,"MEAN_ANOMALY":269.2677,"EPHEMERIS_TYPE":0,"CLASSIFICATION_TYPE":"U","NORAD_CAT_ID":48240,"ELEMENT_SET_NO":999,"REV_AT_EPOCH":23148,"BSTAR":-0.00037554933,"MEAN_MOTION_DOT":-1.26e-6,"MEAN_MOTION_DDOT":0},{"OBJECT_NAME":"ONEWEB-0201","OBJECT_ID":"2021-031AH","EPOCH":"2026-02-11T05:21:25.608384","MEAN_MOTION":13.14503286,"ECCENTRICITY":0.00020602,"INCLINATION":87.902,"RA_OF_ASC_NODE":314.839,"ARG_OF_PERICENTER":80.2129,"MEAN_ANOMALY":279.9233,"EPHEMERIS_TYPE":0,"CLASSIFICATION_TYPE":"U","NORAD_CAT_ID":48241,"ELEMENT_SET_NO":999,"REV_AT_EPOCH":23183,"BSTAR":-0.00030267086,"MEAN_MOTION_DOT":-9.9e-7,"MEAN_MOTION_DDOT":0},{"OBJECT_NAME":"ONEWEB-0207","OBJECT_ID":"2021-031AJ","EPOCH":"2026-02-11T04:52:41.505024","MEAN_MOTION":13.1450398,"ECCENTRICITY":0.00019368,"INCLINATION":87.9027,"RA_OF_ASC_NODE":314.8127,"ARG_OF_PERICENTER":75.7279,"MEAN_ANOMALY":284.4066,"EPHEMERIS_TYPE":0,"CLASSIFICATION_TYPE":"U","NORAD_CAT_ID":48242,"ELEMENT_SET_NO":999,"REV_AT_EPOCH":23174,"BSTAR":0.00077954571,"MEAN_MOTION_DOT":3.02e-6,"MEAN_MOTION_DDOT":0},{"OBJECT_NAME":"ONEWEB-0208","OBJECT_ID":"2021-031AK","EPOCH":"2026-02-11T04:26:25.634688","MEAN_MOTION":13.1450363,"ECCENTRICITY":0.00017415,"INCLINATION":87.9022,"RA_OF_ASC_NODE":314.8293,"ARG_OF_PERICENTER":87.8635,"MEAN_ANOMALY":272.2695,"EPHEMERIS_TYPE":0,"CLASSIFICATION_TYPE":"U","NORAD_CAT_ID":48243,"ELEMENT_SET_NO":999,"REV_AT_EPOCH":23175,"BSTAR":0.00018848184,"MEAN_MOTION_DOT":8.3e-7,"MEAN_MOTION_DDOT":0},{"OBJECT_NAME":"ONEWEB-0200","OBJECT_ID":"2021-031AL","EPOCH":"2026-02-11T05:23:30.887520","MEAN_MOTION":13.14503064,"ECCENTRICITY":0.00018204,"INCLINATION":87.9027,"RA_OF_ASC_NODE":314.8104,"ARG_OF_PERICENTER":83.9584,"MEAN_ANOMALY":276.1753,"EPHEMERIS_TYPE":0,"CLASSIFICATION_TYPE":"U","NORAD_CAT_ID":48244,"ELEMENT_SET_NO":999,"REV_AT_EPOCH":23168,"BSTAR":-0.00036385529,"MEAN_MOTION_DOT":-1.22e-6,"MEAN_MOTION_DDOT":0},{"OBJECT_NAME":"ONEWEB-0217","OBJECT_ID":"2021-031AM","EPOCH":"2026-02-10T06:01:25.588704","MEAN_MOTION":13.14503813,"ECCENTRICITY":0.0001772,"INCLINATION":87.9027,"RA_OF_ASC_NODE":315.0026,"ARG_OF_PERICENTER":87.5962,"MEAN_ANOMALY":272.537,"EPHEMERIS_TYPE":0,"CLASSIFICATION_TYPE":"U","NORAD_CAT_ID":48245,"ELEMENT_SET_NO":999,"REV_AT_EPOCH":23150,"BSTAR":-0.00022306,"MEAN_MOTION_DOT":-7.0e-7,"MEAN_MOTION_DDOT":0},{"OBJECT_NAME":"ONEWEB-0211","OBJECT_ID":"2021-045A","EPOCH":"2026-02-10T14:47:17.718720","MEAN_MOTION":13.1614175,"ECCENTRICITY":0.00014522,"INCLINATION":87.8984,"RA_OF_ASC_NODE":284.3792,"ARG_OF_PERICENTER":98.2896,"MEAN_ANOMALY":261.84,"EPHEMERIS_TYPE":0,"CLASSIFICATION_TYPE":"U","NORAD_CAT_ID":48767,"ELEMENT_SET_NO":999,"REV_AT_EPOCH":22779,"BSTAR":-0.00021297082,"MEAN_MOTION_DOT":-6.8e-7,"MEAN_MOTION_DDOT":0},{"OBJECT_NAME":"ONEWEB-0223","OBJECT_ID":"2021-045B","EPOCH":"2026-02-11T02:09:54.418752","MEAN_MOTION":13.15549511,"ECCENTRICITY":0.00012488,"INCLINATION":87.8982,"RA_OF_ASC_NODE":284.3611,"ARG_OF_PERICENTER":95.1178,"MEAN_ANOMALY":265.0094,"EPHEMERIS_TYPE":0,"CLASSIFICATION_TYPE":"U","NORAD_CAT_ID":48768,"ELEMENT_SET_NO":999,"REV_AT_EPOCH":22782,"BSTAR":-8.8850036e-5,"MEAN_MOTION_DOT":-2.1e-7,"MEAN_MOTION_DDOT":0},{"OBJECT_NAME":"ONEWEB-0230","OBJECT_ID":"2021-045C","EPOCH":"2026-02-10T16:21:13.425696","MEAN_MOTION":13.15548911,"ECCENTRICITY":0.00015634,"INCLINATION":87.898,"RA_OF_ASC_NODE":284.4674,"ARG_OF_PERICENTER":71.7324,"MEAN_ANOMALY":288.3977,"EPHEMERIS_TYPE":0,"CLASSIFICATION_TYPE":"U","NORAD_CAT_ID":48769,"ELEMENT_SET_NO":999,"REV_AT_EPOCH":22803,"BSTAR":-1.1686784e-5,"MEAN_MOTION_DOT":8.0e-8,"MEAN_MOTION_DDOT":0},{"OBJECT_NAME":"ONEWEB-0237","OBJECT_ID":"2021-045D","EPOCH":"2026-02-10T16:05:14.777952","MEAN_MOTION":13.15548986,"ECCENTRICITY":0.00012238,"INCLINATION":87.8981,"RA_OF_ASC_NODE":284.471,"ARG_OF_PERICENTER":80.6284,"MEAN_ANOMALY":279.4985,"EPHEMERIS_TYPE":0,"CLASSIFICATION_TYPE":"U","NORAD_CAT_ID":48770,"ELEMENT_SET_NO":999,"REV_AT_EPOCH":22775,"BSTAR":0.00015344595,"MEAN_MOTION_DOT":7.1e-7,"MEAN_MOTION_DDOT":0}]
